{"fetched_at":"2026-07-24T07:06:17.941Z","source":"https://celestrak.org/NORAD/elements/gp.php?GROUP=stations&FORMAT=JSON","constellation":"crewed-vehicles","records":[{"OBJECT_NAME":"SOYUZ-MS 28","OBJECT_ID":"2025-275A","EPOCH":"2026-07-23T19:55:54.431040","CLASSIFICATION_TYPE":"U","MEAN_MOTION":15.49124476,"ECCENTRICITY":0.0006921,"INCLINATION":51.6314,"RA_OF_ASC_NODE":118.7564,"ARG_OF_PERICENTER":330.4598,"MEAN_ANOMALY":29.5998,"EPHEMERIS_TYPE":0,"NORAD_CAT_ID":66664,"ELEMENT_SET_NO":999,"REV_AT_EPOCH":57717,"BSTAR":0.00018169,"MEAN_MOTION_DOT":0.0000962,"MEAN_MOTION_DDOT":0},{"OBJECT_NAME":"CREW DRAGON 12","OBJECT_ID":"2026-031A","EPOCH":"2026-07-23T19:55:54.431040","CLASSIFICATION_TYPE":"U","MEAN_MOTION":15.49124476,"ECCENTRICITY":0.0006921,"INCLINATION":51.6314,"RA_OF_ASC_NODE":118.7564,"ARG_OF_PERICENTER":330.4598,"MEAN_ANOMALY":29.5998,"EPHEMERIS_TYPE":0,"NORAD_CAT_ID":67796,"ELEMENT_SET_NO":999,"REV_AT_EPOCH":57713,"BSTAR":0.00018169,"MEAN_MOTION_DOT":0.0000962,"MEAN_MOTION_DDOT":0},{"OBJECT_NAME":"SHENZHOU-23 (SZ-23)","OBJECT_ID":"2026-113A","EPOCH":"2026-07-23T00:49:30.417312","CLASSIFICATION_TYPE":"U","MEAN_MOTION":15.58280026,"ECCENTRICITY":0.00017398,"INCLINATION":41.469,"RA_OF_ASC_NODE":104.3124,"ARG_OF_PERICENTER":306.7625,"MEAN_ANOMALY":53.3054,"EPHEMERIS_TYPE":0,"NORAD_CAT_ID":69180,"ELEMENT_SET_NO":999,"REV_AT_EPOCH":29818,"BSTAR":0.00014911554,"MEAN_MOTION_DOT":0.00011304,"MEAN_MOTION_DDOT":0},{"OBJECT_NAME":"SOYUZ-MS 29","OBJECT_ID":"2026-162A","EPOCH":"2026-07-23T05:59:51.287424","CLASSIFICATION_TYPE":"U","MEAN_MOTION":15.49111598,"ECCENTRICITY":0.00069057,"INCLINATION":51.6313,"RA_OF_ASC_NODE":121.6296,"ARG_OF_PERICENTER":328.4486,"MEAN_ANOMALY":31.6087,"EPHEMERIS_TYPE":0,"NORAD_CAT_ID":100057,"ELEMENT_SET_NO":999,"REV_AT_EPOCH":57691,"BSTAR":0.00018022249,"MEAN_MOTION_DOT":0.00009534,"MEAN_MOTION_DDOT":0}]}
