{"epoch":1784848540,"count":18314,"objects":[{"id":"66664","name":"SOYUZ MS-28","type":"PAYLOAD","l1":"1 66664U 25275A   26204.83049110  .00009620  00000-0  18169-3 0  9994","l2":"2 66664  51.6314 118.7564 0006921 330.4598  29.5998 15.49124476577174"},{"id":"67796","name":"DRAGON FREEDOM 3","type":"PAYLOAD","l1":"1 67796U 26031A   26204.83049110  .00009620  00000-0  18169-3 0  9992","l2":"2 67796  51.6314 118.7564 0006921 330.4598  29.5998 15.49124476577137"},{"id":"69180","name":"SZ-23","type":"PAYLOAD","l1":"1 69180U 26113A   26204.03437983  .00011304  00000-0  14912-3 0  9997","l2":"2 69180  41.4690 104.3124 0001740 306.7625  53.3054 15.58280026298181"},{"id":"100057","name":"SOYUZ MS-29","type":"PAYLOAD","l1":"1 A0057U 26162A   26204.24989916  .00009534  00000-0  18022-3 0  9998","l2":"2 A0057  51.6313 121.6296 0006906 328.4486  31.6087 15.49111598576913"}]}